NORAD_CAT_ID,OBJECT_NAME,OBJECT_TYPE,EPOCH,MEAN_MOTION,ECCENTRICITY,INCLINATION,RA_OF_ASC_NODE,ARG_OF_PERICENTER,MEAN_ANOMALY,BSTAR,MEAN_MOTION_DOT,MEAN_MOTION_DDOT,TLE_LINE0,TLE_LINE1,TLE_LINE2,SEMIMAJOR_AXIS,PERIOD,APOGEE,PERIGEE,DECAYED
52475.0,STARLINK-3882,PAYLOAD,2023-12-25 12:19:07,15.08849806,0.0001623,53.2189,73.9211,89.1647,270.9531,-7.1179e-05,-1.421e-05,0.0,0 STARLINK-3882,1 52475U 22049AA  23359.51327774 -.00001421  00000-0 -71179-4 0  9997,2 52475  53.2189  73.9211 0001623  89.1647 270.9531 15.08849806 90693,6917.85,95.437,540.838,538.593,0.0
52475.0,STARLINK-3882,PAYLOAD,2023-12-26 10:34:31,15.08835375,0.0001633,53.2193,69.7578,99.1516,260.966,-1.9838e-06,-3.2e-06,0.0,0 STARLINK-3882,1 52475U 22049AA  23360.44064791 -.00000320  00000-0 -19838-5 0  9990,2 52475  53.2193  69.7578 0001633  99.1516 260.9660 15.08835375 90995,6917.895,95.438,540.889,538.63,0.0
52475.0,STARLINK-3882,PAYLOAD,2023-12-27 04:03:46,15.08845266,0.0002121,53.2194,66.486,109.494,250.6281,-1.381e-05,-5.08e-06,0.0,0 STARLINK-3882,1 52475U 22049AA  23361.16928520 -.00000508  00000-0 -13810-4 0  9990,2 52475  53.2194  66.4860 0002121 109.4940 250.6281 15.08845266 91102,6917.864,95.437,541.197,538.262,0.0
52475.0,STARLINK-3882,PAYLOAD,2023-12-27 12:00:41,15.08846185,0.000153,53.2183,64.9991,78.4643,281.6521,0.0001305,1.79e-05,0.0,0 STARLINK-3882,1 52475U 22049AA  23361.50048317  .00001790  00000-0  13050-3 0  9992,2 52475  53.2183  64.9991 0001530  78.4643 281.6521 15.08846185 90994,6917.861,95.437,540.785,538.668,0.0
52475.0,STARLINK-3882,PAYLOAD,2023-12-28 03:54:33,15.08836977,0.0001617,53.2186,62.0306,60.3908,299.7245,0.00019558,2.826e-05,0.0,0 STARLINK-3882,1 52475U 22049AA  23362.16288813  .00002826  00000-0  19558-3 0  9992,2 52475  53.2186  62.0306 0001617  60.3908 299.7245 15.08836977 91257,6917.89,95.438,540.873,538.636,0.0
52475.0,STARLINK-3882,PAYLOAD,2023-12-28 11:51:28,15.08846579,0.0001614,53.2188,60.542,66.3794,293.7368,0.00022436,3.285e-05,0.0,0 STARLINK-3882,1 52475U 22049AA  23362.49408276  .00003285  00000-0  22436-3 0  9994,2 52475  53.2188  60.5420 0001614  66.3794 293.7368 15.08846579 91300,6917.86,95.437,540.842,538.609,0.0
52475.0,STARLINK-3882,PAYLOAD,2023-12-29 03:45:20,15.08839171,0.0001697,53.2184,57.5665,74.0185,286.0994,2.7737e-05,1.53e-06,0.0,0 STARLINK-3882,1 52475U 22049AA  23363.15649119  .00000153  00000-0  27737-4 0  9992,2 52475  53.2184  57.5665 0001697  74.0185 286.0994 15.08839171 91405,6917.883,95.438,540.922,538.574,0.0
52475.0,STARLINK-3882,PAYLOAD,2023-12-29 10:06:53,15.08838551,0.0001607,53.2183,56.3765,75.6718,284.4452,1.0175e-05,-1.26e-06,0.0,0 STARLINK-3882,1 52475U 22049AA  23363.42145237 -.00000126  00000-0  10175-4 0  9993,2 52475  53.2183  56.3765 0001607  75.6718 284.4452 15.08838551 91280,6917.885,95.438,540.862,538.638,0.0
52475.0,STARLINK-3882,PAYLOAD,2023-12-30 09:57:39,15.08852739,0.0001515,53.2184,51.9146,91.6003,268.5163,3.5306e-05,2.74e-06,0.0,0 STARLINK-3882,1 52475U 22049AA  23364.41504145  .00000274  00000-0  35306-4 0  9996,2 52475  53.2184  51.9146 0001515  91.6003 268.5163 15.08852739 91598,6917.841,95.437,540.755,538.658,0.0
52475.0,STARLINK-3882,PAYLOAD,2023-12-31 03:26:54,15.08838671,0.0001832,53.2196,48.6479,88.6601,271.4601,4.3009e-05,3.96e-06,0.0,0 STARLINK-3882,1 52475U 22049AA  23365.14369069  .00000396  00000-0  43009-4 0  9995,2 52475  53.2196  48.6479 0001832  88.6601 271.4601 15.08838671 91707,6917.884,95.438,541.017,538.482,0.0
52475.0,STARLINK-3882,PAYLOAD,2023-12-31 08:13:04,15.08832712,0.000162,53.2186,47.7527,93.8722,266.2455,6.2712e-05,7.1e-06,0.0,0 STARLINK-3882,1 52475U 22049AA  23365.34241451  .00000710  00000-0  62712-4 0  9993,2 52475  53.2186  47.7527 0001620  93.8722 266.2455 15.08832712 91739,6917.903,95.438,540.888,538.647,0.0
52475.0,STARLINK-3882,PAYLOAD,2024-01-01 08:03:51,15.08842389,0.0001674,53.2181,43.292,100.5952,259.5228,4.1799e-05,3.77e-06,0.0,0 STARLINK-3882,1 52475U 22049AA  24001.33600968  .00000377  00000-0  41799-4 0  9993,2 52475  53.2181  43.2920 0001674 100.5952 259.5228 15.08842389 91882,6917.873,95.437,540.896,538.58,0.0
52475.0,STARLINK-3882,PAYLOAD,2024-01-02 03:08:29,15.08833647,0.0001498,53.2168,39.7222,92.7101,267.4062,6.5401e-05,7.53e-06,0.0,0 STARLINK-3882,1 52475U 22049AA  24002.13089537  .00000753  00000-0  65401-4 0  9999,2 52475  53.2168  39.7222 0001498  92.7101 267.4062 15.08833647 92000,6917.9,95.438,540.801,538.729,0.0
52475.0,STARLINK-3882,PAYLOAD,2024-01-02 09:30:01,15.08835795,0.0001474,53.2175,38.5331,94.2472,265.8688,7.7759e-05,9.5e-06,0.0,0 STARLINK-3882,1 52475U 22049AA  24002.39585478  .00000950  00000-0  77759-4 0  9990,2 52475  53.2175  38.5331 0001474  94.2472 265.8688 15.08835795 91885,6917.893,95.438,540.778,538.739,0.0
52475.0,STARLINK-3882,PAYLOAD,2024-01-03 10:56:11,15.08843605,0.0001593,53.218,33.7753,100.6613,259.4559,1.2685e-05,-8.6e-07,0.0,0 STARLINK-3882,1 52475U 22049AA  24003.45569391 -.00000086  00000-0  12685-4 0  9992,2 52475  53.2180  33.7753 0001593 100.6613 259.4559 15.08843605 92209,6917.869,95.437,540.836,538.632,0.0
52475.0,STARLINK-3882,PAYLOAD,2024-01-04 09:11:35,15.08840441,0.0001467,53.218,29.6122,98.2785,261.8373,9.0299e-05,1.149e-05,0.0,0 STARLINK-3882,1 52475U 22049AA  24004.38305456  .00001149  00000-0  90299-4 0  9992,2 52475  53.2180  29.6122 0001467  98.2785 261.8373 15.08840441 92188,6917.879,95.438,540.759,538.729,0.0
52475.0,STARLINK-3882,PAYLOAD,2024-01-05 01:05:27,15.08842255,0.0001456,53.2182,26.6398,96.4817,263.634,4.2614e-05,3.9e-06,0.0,0 STARLINK-3882,1 52475U 22049AA  24005.04545571  .00000390  00000-0  42614-4 0  9995,2 52475  53.2182  26.6398 0001456  96.4817 263.6340 15.08842255 92444,6917.873,95.437,540.746,538.731,0.0
52475.0,STARLINK-3882,PAYLOAD,2024-01-05 07:26:59,15.08843233,0.0001449,53.2178,25.4497,86.4151,273.7007,5.4668e-05,5.82e-06,0.0,0 STARLINK-3882,1 52475U 22049AA  24005.31041522  .00000582  00000-0  54668-4 0  9997,2 52475  53.2178  25.4497 0001449  86.4151 273.7007 15.08843233 92324,6917.871,95.437,540.738,538.733,0.0
52475.0,STARLINK-3882,PAYLOAD,2024-01-06 07:17:46,15.08841142,0.000152,53.2179,20.9897,83.5306,276.5859,8.3113e-05,1.035e-05,0.0,0 STARLINK-3882,1 52475U 22049AA  24006.30401509  .00001035  00000-0  83113-4 0  9993,2 52475  53.2179  20.9897 0001520  83.5306 276.5859 15.08841142 92636,6917.877,95.437,540.793,538.69,0.0
52475.0,STARLINK-3882,PAYLOAD,2024-01-07 10:19:19,15.08845036,0.0001466,53.2181,15.9336,87.5822,272.5338,5.8536e-05,6.44e-06,0.0,0 STARLINK-3882,1 52475U 22049AA  24007.43009163  .00000644  00000-0  58536-4 0  9994,2 52475  53.2181  15.9336 0001466  87.5822 272.5338 15.08845036 92800,6917.865,95.437,540.744,538.716,0.0
52475.0,STARLINK-3882,PAYLOAD,2024-01-08 03:48:34,15.08841053,0.0001357,53.2176,12.6599,90.6145,269.5003,-9.3805e-06,-4.37e-06,0.0,0 STARLINK-3882,1 52475U 22049AA  24008.15873653 -.00000437  00000-0 -93805-5 0  9998,2 52475  53.2176  12.6599 0001357  90.6145 269.5003 15.08841053 92913,6917.877,95.437,540.681,538.803,0.0
52475.0,STARLINK-3882,PAYLOAD,2024-01-08 06:59:21,15.08842279,0.0001398,53.2178,12.0651,86.7648,273.3505,2.8736e-06,-2.42e-06,0.0,0 STARLINK-3882,1 52475U 22049AA  24008.29121571 -.00000242  00000-0  28736-5 0  9992,2 52475  53.2178  12.0651 0001398  86.7648 273.3505 15.08842279 92772,6917.873,95.437,540.706,538.771,0.0
52475.0,STARLINK-3882,PAYLOAD,2024-01-09 05:14:45,15.08840958,0.0001389,53.2179,7.9051,91.435,268.6801,5.0409e-05,5.14e-06,0.0,0 STARLINK-3882,1 52475U 22049AA  24009.21857679  .00000514  00000-0  50409-4 0  9992,2 52475  53.2179   7.9051 0001389  91.4350 268.6801 15.08840958 93075,6917.877,95.437,540.703,538.782,0.0
52475.0,STARLINK-3882,PAYLOAD,2024-01-09 06:50:08,15.08842999,0.0001404,53.2179,7.6076,94.2666,265.8487,7.1295e-05,8.47e-06,0.0,0 STARLINK-3882,1 52475U 22049AA  24009.28481485  .00000847  00000-0  71295-4 0  9992,2 52475  53.2179   7.6076 0001404  94.2666 265.8487 15.08842999 92927,6917.871,95.437,540.707,538.765,0.0
52475.0,STARLINK-3882,PAYLOAD,2024-01-09 22:43:59,15.08834492,0.0001407,53.2176,4.6352,108.759,251.3555,8.4362e-05,1.055e-05,0.0,0 STARLINK-3882,1 52475U 22049AA  24009.94722053  .00001055  00000-0  84362-4 0  9995,2 52475  53.2176   4.6352 0001407 108.7590 251.3555 15.08834492 93025,6917.897,95.438,540.736,538.789,0.0
52475.0,STARLINK-3882,PAYLOAD,2024-01-10 05:05:32,15.08836653,0.0001379,53.2175,3.4442,102.2891,257.8255,5.1432e-05,5.31e-06,0.0,0 STARLINK-3882,1 52475U 22049AA  24010.21218142  .00000531  00000-0  51432-4 0  9996,2 52475  53.2175   3.4442 0001379 102.2891 257.8255 15.08836653 93223,6917.891,95.438,540.71,538.802,0.0
52475.0,STARLINK-3882,PAYLOAD,2024-01-10 06:40:55,15.08838707,0.0001393,53.2175,3.1469,102.1369,257.9779,5.908e-05,6.52e-06,0.0,0 STARLINK-3882,1 52475U 22049AA  24010.27841999  .00000652  00000-0  59080-4 0  9995,2 52475  53.2175   3.1469 0001393 102.1369 257.9779 15.08838707 93071,6917.884,95.438,540.713,538.786,0.0
52475.0,STARLINK-3882,PAYLOAD,2024-01-11 04:56:18,15.08852322,0.0001392,53.2176,358.9835,100.1598,259.9551,0.0001376,1.903e-05,0.0,0 STARLINK-3882,1 52475U 22049AA  24011.20576908  .00001903  00000-0  13760-3 0  9998,2 52475  53.2176 358.9835 0001392 100.1598 259.9551 15.08852322 93373,6917.843,95.437,540.671,538.745,0.0
52475.0,STARLINK-3882,PAYLOAD,2024-01-11 08:07:04,15.08856944,0.0001412,53.2181,358.3888,105.8905,254.2243,0.0002311,3.394e-05,0.0,0 STARLINK-3882,1 52475U 22049AA  24011.33824366  .00003394  00000-0  23110-3 0  9992,2 52475  53.2181 358.3888 0001412 105.8905 254.2243 15.08856944 93233,6917.829,95.436,540.67,538.717,0.0
52475.0,STARLINK-3882,PAYLOAD,2024-01-11 22:25:34,15.0883452,0.0001462,53.2179,355.7128,89.0805,271.0355,4.2157e-05,3.83e-06,0.0,0 STARLINK-3882,1 52475U 22049AA  24011.93442506  .00000383  00000-0  42157-4 0  9998,2 52475  53.2179 355.7128 0001462  89.0805 271.0355 15.08834520 93322,6917.897,95.438,540.774,538.751,0.0
